[{"OBJECT_NAME":"STARLINK-30899","OBJECT_ID":"2023-180U","EPOCH":"2026-03-09T09:19:59.434176","MEAN_MOTION":15.27566389,"ECCENTRICITY":0.00012194,"INCLINATION":43.0007,"RA_OF_ASC_NODE":53.9313,"ARG_OF_PERICENTER":272.586,"MEAN_ANOMALY":87.4852,"EPHEMERIS_TYPE":0,"CLASSIFICATION_TYPE":"U","NORAD_CAT_ID":58420,"ELEMENT_SET_NO":999,"REV_AT_EPOCH":12746,"BSTAR":5.6665656e-5,"MEAN_MOTION_DOT":1.297e-5,"MEAN_MOTION_DDOT":0},{"OBJECT_NAME":"REAL","OBJECT_ID":"2025-154G","EPOCH":"2026-03-09T17:20:09.670560","MEAN_MOTION":15.28408058,"ECCENTRICITY":0.00018528,"INCLINATION":97.4133,"RA_OF_ASC_NODE":137.2581,"ARG_OF_PERICENTER":118.5876,"MEAN_ANOMALY":241.555,"EPHEMERIS_TYPE":0,"CLASSIFICATION_TYPE":"U","NORAD_CAT_ID":64875,"ELEMENT_SET_NO":999,"REV_AT_EPOCH":3483,"BSTAR":0.0008290401,"MEAN_MOTION_DOT":0.00022901,"MEAN_MOTION_DDOT":0}]
